{"type": "FeatureCollection", "features": [{"type": "Feature", "geometry": {"type": "LineString", "coordinates": [[80.0795, 32.3382], [80.0571, 32.28]]}, "properties": {"id": "tunnelportalline_001", "name": "Ali Observatory — Tunnel Extent", "category": "TunnelPortalLine", "category_label": "Tunnel Portal Line", "parent_name": "Ali Observatory", "color": "#8E8E93"}}, {"type": "Feature", "geometry": {"type": "LineString", "coordinates": [[76.991, 35.729], [76.999, 35.726]]}, "properties": {"id": "tunnelportalline_002", "name": "Shaksgam Valley — Tunnel Extent", "category": "TunnelPortalLine", "category_label": "Tunnel Portal Line", "parent_name": "Shaksgam Valley", "color": "#8E8E93"}}, {"type": "Feature", "geometry": {"type": "LineString", "coordinates": [[91.2547, 28.0763], [91.2615, 28.0624]]}, "properties": {"id": "tunnelportalline_003", "name": "Lakhang Dzong — Tunnel Extent", "category": "TunnelPortalLine", "category_label": "Tunnel Portal Line", "parent_name": "Lakhang Dzong", "color": "#8E8E93"}}, {"type": "Feature", "geometry": {"type": "LineString", "coordinates": [[96.11, 29.505], [96.051, 29.515]]}, "properties": {"id": "tunnelportalline_004", "name": "Midui — Tunnel Extent", "category": "TunnelPortalLine", "category_label": "Tunnel Portal Line", "parent_name": "Midui", "color": "#8E8E93"}}, {"type": "Feature", "geometry": {"type": "LineString", "coordinates": [[88.90416, 27.49833], [88.9175, 27.49638]]}, "properties": {"id": "tunnelportalline_005", "name": "Yatung — Tunnel Extent", "category": "TunnelPortalLine", "category_label": "Tunnel Portal Line", "parent_name": "Yatung", "color": "#8E8E93"}}]}